IRIDIUM 39              
1 25042U 97069D   25036.16737576  .00001152  00000+0  29866-3 0  9994
2 25042  86.3878 267.7422 0019209  33.2198 327.0207 14.48882706430109
IRIDIUM 38              
1 25043U 97069E   25035.68090985  .00000912  00000+0  29582-3 0  9995
2 25043  86.3947 288.9332 0002865 125.7792 234.3673 14.37901151427173
IRIDIUM 42              
1 25077U 97077A   25036.22186094  .00000842  00000+0  28224-3 0  9993
2 25077  86.3960 294.7157 0002067 104.1441 255.9986 14.36155451422254
IRIDIUM 44              
1 25078U 97077B   25036.11504208  .00000836  00000+0  25913-3 0  9998
2 25078  86.3931 277.0213 0003929  93.6168 266.5480 14.40024504424726
IRIDIUM 51              
1 25262U 98018A   25035.96308035  .00033928  00000+0  10130-2 0  9993
2 25262  86.3891 120.7534 0107273  35.5695 325.2640 15.28853522426970
